*******************************************************************************
Ephemeris / WWW_USER Mon Mar 24 09:09:42 2025 Pasadena, USA      / Horizons    
*******************************************************************************
Target body name: 584778 (2017 RG16)              {source: JPL#32}
Center body name: Earth (399)                     {source: DE441}
Center-site name: Mauna Kea
*******************************************************************************
Start time      : A.D. 2018-Dec-22 03:58:00.0000 UT      
Stop  time      : A.D. 2018-Dec-22 16:42:00.0000 UT      
Step-size       : 1 minutes
*******************************************************************************
Target pole/equ : undefined
Target radii    : undefined                                                    
Center geodetic : 204.5278, 19.8260847, 4.21024   {E-lon(deg),Lat(deg),Alt(km)}
Center cylindric: 204.5278, 6006.35451, 2151.0229 {E-lon(deg),Dxy(km),Dz(km)}
Center pole/equ : ITRF93                          {East-longitude positive}
Center radii    : 6378.137, 6378.137, 6356.752 km {Equator_a, b, pole_c}       
Target primary  : Sun
Vis. interferer : MOON (R_eq= 1737.400) km        {source: DE441}
Rel. light bend : Sun                             {source: DE441}
Rel. lght bnd GM: 1.3271E+11 km^3/s^2                                          
Small-body perts: Yes                             {source: SB441-N16}
Atmos refraction: NO (AIRLESS)
RA format       : HMS
Time format     : CAL 
Calendar mode   : Mixed Julian/Gregorian
RTS-only print  : NO       
EOP file        : eop.250321.p250617                                           
EOP coverage    : DATA-BASED 1962-JAN-20 TO 2025-MAR-21. PREDICTS-> 2025-JUN-16
Units conversion: 1 au= 149597870.700 km, c= 299792.458 km/s, 1 day= 86400.0 s 
Table cut-offs 1: Elevation (-90.0deg=NO ),Airmass (>38.000=NO), Daylight (YES)
Table cut-offs 2: Solar elongation (  0.0,180.0=NO ),Local Hour Angle( 0.0=NO )
Table cut-offs 3: RA/DEC angular rate (     0.0=NO )                           
*******************************************************************************
Initial IAU76/J2000 heliocentric ecliptic osculating elements (au, days, deg.):
  EPOCH=  2458734.5 ! 2019-Sep-08.00 (TDB)         Residual RMS= .14786        
   EC= .9085798704456644   QR= 7.106644157383132   TP= 2457926.6828443832      
   OM= .547367620295521    W=  323.0265763955561   IN= 74.86683883750447       
  Equivalent ICRF heliocentric cartesian coordinates (au, au/d):
   X= 8.360714527577798E+00  Y=-2.241293784086399E-01  Z= 2.069107023705337E+00
  VX= 1.416407206608659E-03 VY=-1.132497676729848E-03 VZ= 7.848232694960624E-03
Asteroid physical parameters (km, seconds, rotational period in hours):        
   GM= n.a.                RAD= n.a.               ROTPER= n.a.                
   H= 11.32                G= .150                 B-V= n.a.                   
                           ALBEDO= n.a.            STYP= n.a.                  
*******************************************************************************
 Date__(UT)__HR:MN     R.A._________(ICRF)_________DEC
******************************************************
$$SOE
 2018-Dec-22 10:07  m  23 35 52.071491 -02 46 29.66183
 2018-Dec-22 10:08  m  23 35 52.072828 -02 46 29.49862
 2018-Dec-22 10:09  m  23 35 52.074166 -02 46 29.33541
 2018-Dec-22 10:10  m  23 35 52.075506 -02 46 29.17220
 2018-Dec-22 10:11  m  23 35 52.076848 -02 46 29.00899
 2018-Dec-22 10:12  m  23 35 52.078191 -02 46 28.84577
 2018-Dec-22 10:13  m  23 35 52.079536 -02 46 28.68256
 2018-Dec-22 10:14  m  23 35 52.080883 -02 46 28.51935
 2018-Dec-22 10:15  m  23 35 52.082230 -02 46 28.35613
 2018-Dec-22 10:16  m  23 35 52.083580 -02 46 28.19291
 2018-Dec-22 10:17  m  23 35 52.084931 -02 46 28.02970
 2018-Dec-22 10:18  m  23 35 52.086284 -02 46 27.86648
 2018-Dec-22 10:19  m  23 35 52.087638 -02 46 27.70326
 2018-Dec-22 10:20  m  23 35 52.088994 -02 46 27.54004
 2018-Dec-22 10:21  m  23 35 52.090351 -02 46 27.37682
 2018-Dec-22 10:22  m  23 35 52.091710 -02 46 27.21359
 2018-Dec-22 10:23  m  23 35 52.093070 -02 46 27.05037
 2018-Dec-22 10:24  m  23 35 52.094432 -02 46 26.88715
 2018-Dec-22 10:25  m  23 35 52.095796 -02 46 26.72392
 2018-Dec-22 10:26  m  23 35 52.097161 -02 46 26.56070
 2018-Dec-22 10:27  m  23 35 52.098527 -02 46 26.39747
 2018-Dec-22 10:28  m  23 35 52.099896 -02 46 26.23425
 2018-Dec-22 10:29  m  23 35 52.101265 -02 46 26.07102
 2018-Dec-22 10:30  m  23 35 52.102637 -02 46 25.90779
 2018-Dec-22 10:31  m  23 35 52.104009 -02 46 25.74456
 2018-Dec-22 10:32  m  23 35 52.105384 -02 46 25.58133
 2018-Dec-22 10:33  m  23 35 52.106760 -02 46 25.41810
 2018-Dec-22 10:34  m  23 35 52.108137 -02 46 25.25487
 2018-Dec-22 10:35  m  23 35 52.109516 -02 46 25.09164
 2018-Dec-22 10:36  m  23 35 52.110897 -02 46 24.92841
 2018-Dec-22 10:37  m  23 35 52.112279 -02 46 24.76517
 2018-Dec-22 10:38  m  23 35 52.113663 -02 46 24.60194
 2018-Dec-22 10:39  m  23 35 52.115048 -02 46 24.43870
 2018-Dec-22 10:40  m  23 35 52.116434 -02 46 24.27547
 2018-Dec-22 10:41  m  23 35 52.117823 -02 46 24.11223
 2018-Dec-22 10:42  m  23 35 52.119213 -02 46 23.94899
 2018-Dec-22 10:43  m  23 35 52.120604 -02 46 23.78576
 2018-Dec-22 10:44  m  23 35 52.121997 -02 46 23.62252
 2018-Dec-22 10:45  m  23 35 52.123391 -02 46 23.45928
 2018-Dec-22 10:46  m  23 35 52.124787 -02 46 23.29604
 2018-Dec-22 10:47  m  23 35 52.126185 -02 46 23.13280
 2018-Dec-22 10:48  m  23 35 52.127584 -02 46 22.96955
 2018-Dec-22 10:49  m  23 35 52.128984 -02 46 22.80631
 2018-Dec-22 10:50  m  23 35 52.130386 -02 46 22.64307
 2018-Dec-22 10:51  m  23 35 52.131790 -02 46 22.47983
 2018-Dec-22 10:52  m  23 35 52.133195 -02 46 22.31658
 2018-Dec-22 10:53  m  23 35 52.134602 -02 46 22.15334
 2018-Dec-22 10:54  m  23 35 52.136010 -02 46 21.99009
 2018-Dec-22 10:55  m  23 35 52.137420 -02 46 21.82684
 2018-Dec-22 10:56  m  23 35 52.138831 -02 46 21.66360
 2018-Dec-22 10:57  m  23 35 52.140243 -02 46 21.50035
 2018-Dec-22 10:58  m  23 35 52.141658 -02 46 21.33710
 2018-Dec-22 10:59  m  23 35 52.143073 -02 46 21.17385
 2018-Dec-22 11:00  m  23 35 52.144491 -02 46 21.01060
 2018-Dec-22 11:01  m  23 35 52.145910 -02 46 20.84735
 2018-Dec-22 11:02  m  23 35 52.147330 -02 46 20.68410
 2018-Dec-22 11:03  m  23 35 52.148752 -02 46 20.52085
 2018-Dec-22 11:04  m  23 35 52.150175 -02 46 20.35759
 2018-Dec-22 11:05  m  23 35 52.151600 -02 46 20.19434
 2018-Dec-22 11:06  m  23 35 52.153026 -02 46 20.03109
 2018-Dec-22 11:07  m  23 35 52.154454 -02 46 19.86783
 2018-Dec-22 11:08  m  23 35 52.155883 -02 46 19.70458
 2018-Dec-22 11:09  m  23 35 52.157314 -02 46 19.54132
 2018-Dec-22 11:10  m  23 35 52.158746 -02 46 19.37806
 2018-Dec-22 11:11  m  23 35 52.160180 -02 46 19.21481
 2018-Dec-22 11:12  m  23 35 52.161615 -02 46 19.05155
 2018-Dec-22 11:13  m  23 35 52.163052 -02 46 18.88829
 2018-Dec-22 11:14  m  23 35 52.164490 -02 46 18.72503
 2018-Dec-22 11:15  m  23 35 52.165930 -02 46 18.56177
 2018-Dec-22 11:16  m  23 35 52.167371 -02 46 18.39851
 2018-Dec-22 11:17  m  23 35 52.168814 -02 46 18.23525
 2018-Dec-22 11:18  m  23 35 52.170258 -02 46 18.07199
 2018-Dec-22 11:19  m  23 35 52.171704 -02 46 17.90873
 2018-Dec-22 11:20  m  23 35 52.173151 -02 46 17.74547
 2018-Dec-22 11:21  m  23 35 52.174600 -02 46 17.58220
 2018-Dec-22 11:22  m  23 35 52.176050 -02 46 17.41894
 2018-Dec-22 11:23  m  23 35 52.177502 -02 46 17.25568
 2018-Dec-22 11:24  m  23 35 52.178955 -02 46 17.09241
 2018-Dec-22 11:25  m  23 35 52.180409 -02 46 16.92914
 2018-Dec-22 11:26  m  23 35 52.181865 -02 46 16.76588
 2018-Dec-22 11:27  m  23 35 52.183322 -02 46 16.60261
 2018-Dec-22 11:28  m  23 35 52.184781 -02 46 16.43935
 2018-Dec-22 11:29  m  23 35 52.186242 -02 46 16.27608
 2018-Dec-22 11:30  m  23 35 52.187703 -02 46 16.11281
 2018-Dec-22 11:31  m  23 35 52.189167 -02 46 15.94954
 2018-Dec-22 11:32  m  23 35 52.190631 -02 46 15.78627
 2018-Dec-22 11:33  m  23 35 52.192098 -02 46 15.62300
 2018-Dec-22 11:34  m  23 35 52.193565 -02 46 15.45973
 2018-Dec-22 11:35  m  23 35 52.195034 -02 46 15.29646
 2018-Dec-22 11:36  m  23 35 52.196505 -02 46 15.13319
 2018-Dec-22 11:37  m  23 35 52.197976 -02 46 14.96992
 2018-Dec-22 11:38  m  23 35 52.199450 -02 46 14.80664
 2018-Dec-22 11:39  m  23 35 52.200925 -02 46 14.64337
 2018-Dec-22 11:40  m  23 35 52.202401 -02 46 14.48010
 2018-Dec-22 11:41  m  23 35 52.203878 -02 46 14.31682
 2018-Dec-22 11:42  m  23 35 52.205357 -02 46 14.15355
 2018-Dec-22 11:43  m  23 35 52.206838 -02 46 13.99027
 2018-Dec-22 11:44  m  23 35 52.208320 -02 46 13.82700
 2018-Dec-22 11:45  m  23 35 52.209803 -02 46 13.66372
 2018-Dec-22 11:46  m  23 35 52.211288 -02 46 13.50045
 2018-Dec-22 11:47  m  23 35 52.212774 -02 46 13.33717
 2018-Dec-22 11:48  m  23 35 52.214261 -02 46 13.17389
 2018-Dec-22 11:49  m  23 35 52.215750 -02 46 13.01061
 2018-Dec-22 11:50  m  23 35 52.217241 -02 46 12.84733
 2018-Dec-22 11:51  m  23 35 52.218732 -02 46 12.68406
 2018-Dec-22 11:52  m  23 35 52.220226 -02 46 12.52078
 2018-Dec-22 11:53  m  23 35 52.221720 -02 46 12.35750
 2018-Dec-22 11:54  m  23 35 52.223216 -02 46 12.19422
 2018-Dec-22 11:55  m  23 35 52.224713 -02 46 12.03093
 2018-Dec-22 11:56  m  23 35 52.226212 -02 46 11.86765
 2018-Dec-22 11:57  m  23 35 52.227712 -02 46 11.70437
 2018-Dec-22 11:58  m  23 35 52.229213 -02 46 11.54109
 2018-Dec-22 11:59  m  23 35 52.230716 -02 46 11.37781
 2018-Dec-22 12:00  m  23 35 52.232220 -02 46 11.21452
 2018-Dec-22 12:01  m  23 35 52.233726 -02 46 11.05124
 2018-Dec-22 12:02  m  23 35 52.235233 -02 46 10.88796
 2018-Dec-22 12:03  m  23 35 52.236741 -02 46 10.72467
 2018-Dec-22 12:04  m  23 35 52.238251 -02 46 10.56139
 2018-Dec-22 12:05  m  23 35 52.239762 -02 46 10.39810
 2018-Dec-22 12:06  m  23 35 52.241274 -02 46 10.23481
 2018-Dec-22 12:07  m  23 35 52.242788 -02 46 10.07153
 2018-Dec-22 12:08  m  23 35 52.244303 -02 46 09.90824
 2018-Dec-22 12:09  m  23 35 52.245819 -02 46 09.74495
